{"type": "FeatureCollection", "features": [ {"type": "Feature", "properties": {"norad_id": 41556, "name": "ZIYUAN 3-02 (ZY 3-02)", "group": "resource", "lat": -61.50160564320464, "lon": -124.51747710087864, "alt_km": 502.7999505991329, "timestamp": "2025-12-21T07:34:34.197866+00:00", "meta": {"OBJECT_NAME": "ZIYUAN 3-02 (ZY 3-02)", "OBJECT_ID": "2016-033A", "EPOCH": "2025-12-20T22:37:12.502848", "MEAN_MOTION": 15.21161972, "ECCENTRICITY": 0.00110867, "INCLINATION": 97.4037, "RA_OF_ASC_NODE": 68.9732, "ARG_OF_PERICENTER": 215.4351, "MEAN_ANOMALY": 144.6149, "EPHEMERIS_TYPE": 0, "CLASSIFICATION_TYPE": "U", "NORAD_CAT_ID": 41556, "ELEMENT_SET_NO": 999, "REV_AT_EPOCH": 53088, "BSTAR": 0.00022229106, "MEAN_MOTION_DOT": 4.891e-05, "MEAN_MOTION_DDOT": 0}, "tle": {"line1": "1 41556U 16033A   25354.94250582  .00004891  00000+0  22229-3 0  9999", "line2": "2 41556  97.4037  68.9732 0011086 215.4351 144.6149 15.21161972530883"}}, "geometry": {"type": "Point", "coordinates": [-124.51747710087864, -61.50160564320464]}}, {"type": "Feature", "properties": {"norad_id": 41599, "name": "CARTOSAT-2C", "group": "resource", "lat": 57.0445307276198, "lon": -115.83569207604494, "alt_km": 502.33254435419894, "timestamp": "2025-12-21T07:34:34.197876+00:00", "meta": {"OBJECT_NAME": "CARTOSAT-2C", "OBJECT_ID": "2016-040A", "EPOCH": "2025-12-20T23:08:14.237088", "MEAN_MOTION": 15.1918087, "ECCENTRICITY": 0.00110529, "INCLINATION": 97.4761, "RA_OF_ASC_NODE": 52.1297, "ARG_OF_PERICENTER": 37.3595, "MEAN_ANOMALY": 322.8406, "EPHEMERIS_TYPE": 0, "CLASSIFICATION_TYPE": "U", "NORAD_CAT_ID": 41599, "ELEMENT_SET_NO": 999, "REV_AT_EPOCH": 52665, "BSTAR": 9.2622629e-05, "MEAN_MOTION_DOT": 1.882e-05, "MEAN_MOTION_DDOT": 0}, "tle": {"line1": "1 41599U 16040A   25354.96405367  .00001882  00000+0  92623-4 0  9992", "line2": "2 41599  97.4761  52.1297 0011052  37.3595 322.8406 15.19180870526650"}}, "geometry": {"type": "Point", "coordinates": [-115.83569207604494, 57.0445307276198]}}, {"type": "Feature", "properties": {"norad_id": 41601, "name": "SKYSAT-C1", "group": "resource", "lat": -51.19696393552917, "lon": -156.9191529853179, "alt_km": 475.054981437107, "timestamp": "2025-12-21T07:34:34.197885+00:00", "meta": {"OBJECT_NAME": "SKYSAT-C1", "OBJECT_ID": "2016-040C", "EPOCH": "2025-12-20T13:19:58.535040", "MEAN_MOTION": 15.32720909, "ECCENTRICITY": 0.000147, "INCLINATION": 96.9811, "RA_OF_ASC_NODE": 31.1288, "ARG_OF_PERICENTER": 346.7095, "MEAN_ANOMALY": 13.4109, "EPHEMERIS_TYPE": 0, "CLASSIFICATION_TYPE": "U", "NORAD_CAT_ID": 41601, "ELEMENT_SET_NO": 999, "REV_AT_EPOCH": 53047, "BSTAR": 0.00018789, "MEAN_MOTION_DOT": 5.865e-05, "MEAN_MOTION_DDOT": 0}, "tle": {"line1": "1 41601U 16040C   25354.55553860  .00005865  00000+0  18789-3 0  9998", "line2": "2 41601  96.9811  31.1288 0001470 346.7095  13.4109 15.32720909530472"}}, "geometry": {"type": "Point", "coordinates": [-156.9191529853179, -51.19696393552917]}}, {"type": "Feature", "properties": {"norad_id": 41603, "name": "LAPAN-A3", "group": "resource", "lat": -17.708594610159558, "lon": -5.145184115471837, "alt_km": 471.6274202801105, "timestamp": "2025-12-21T07:34:34.197894+00:00", "meta": {"OBJECT_NAME": "LAPAN-A3", "OBJECT_ID": "2016-040E", "EPOCH": "2025-12-20T22:14:45.203712", "MEAN_MOTION": 15.31612272, "ECCENTRICITY": 0.0008907, "INCLINATION": 97.1424, "RA_OF_ASC_NODE": 352.1854, "ARG_OF_PERICENTER": 300.5873, "MEAN_ANOMALY": 59.449, "EPHEMERIS_TYPE": 0, "CLASSIFICATION_TYPE": "U", "NORAD_CAT_ID": 41603, "ELEMENT_SET_NO": 999, "REV_AT_EPOCH": 52751, "BSTAR": 9.8069164e-05, "MEAN_MOTION_DOT": 2.922e-05, "MEAN_MOTION_DDOT": 0}, "tle": {"line1": "1 41603U 16040E   25354.92691208  .00002922  00000+0  98069-4 0  9991", "line2": "2 41603  97.1424 352.1854 0008907 300.5873  59.4490 15.31612272527512"}}, "geometry": {"type": "Point", "coordinates": [-5.145184115471837, -17.708594610159558]}}, {"type": "Feature", "properties": {"norad_id": 41604, "name": "BIROS", "group": "resource", "lat": -27.882326650326853, "lon": -156.65195303836754, "alt_km": 299.42044049050764, "timestamp": "2025-12-21T07:34:34.197904+00:00", "meta": {"OBJECT_NAME": "BIROS", "OBJECT_ID": "2016-040F", "EPOCH": "2025-12-20T21:39:33.242976", "MEAN_MOTION": 15.92771891, "ECCENTRICITY": 0.00036601, "INCLINATION": 97.069, "RA_OF_ASC_NODE": 26.6808, "ARG_OF_PERICENTER": 134.6897, "MEAN_ANOMALY": 225.4677, "EPHEMERIS_TYPE": 0, "CLASSIFICATION_TYPE": "U", "NORAD_CAT_ID": 41604, "ELEMENT_SET_NO": 999, "REV_AT_EPOCH": 53002, "BSTAR": 0.00052681511, "MEAN_MOTION_DOT": 0.00179923, "MEAN_MOTION_DDOT": 1.4046561e-05}, "tle": {"line1": "1 41604U 16040F   25354.90246809  .00179923  14047-4  52682-3 0  9990", "line2": "2 41604  97.0690  26.6808 0003660 134.6897 225.4677 15.92771891530024"}}, "geometry": {"type": "Point", "coordinates": [-156.65195303836754, -27.882326650326853]}}, {"type": "Feature", "properties": {"norad_id": 41727, "name": "GAOFEN-3", "group": "resource", "lat": -63.887777704690095, "lon": 163.21897733858077, "alt_km": 759.2367094102246, "timestamp": "2025-12-21T07:34:34.197913+00:00", "meta": {"OBJECT_NAME": "GAOFEN-3", "OBJECT_ID": "2016-049A", "EPOCH": "2025-12-20T23:46:57.633312", "MEAN_MOTION": 14.42215089, "ECCENTRICITY": 0.00012178, "INCLINATION": 98.4031, "RA_OF_ASC_NODE": 0.4513, "ARG_OF_PERICENTER": 57.7746, "MEAN_ANOMALY": 302.3561, "EPHEMERIS_TYPE": 0, "CLASSIFICATION_TYPE": "U", "NORAD_CAT_ID": 41727, "ELEMENT_SET_NO": 999, "REV_AT_EPOCH": 49296, "BSTAR": -1.8621788e-05, "MEAN_MOTION_DOT": -1.05e-06, "MEAN_MOTION_DDOT": 0}, "tle": {"line1": "1 41727U 16049A   25354.99094483 -.00000105  00000+0 -18622-4 0  9996", "line2": "2 41727  98.4031   0.4513 0001217  57.7746 302.3561 14.42215089492964"}}, "geometry": {"type": "Point", "coordinates": [163.21897733858077, -63.887777704690095]}}, {"type": "Feature", "properties": {"norad_id": 41771, "name": "SKYSAT-C4", "group": "resource", "lat": 72.59853214468646, "lon": -137.05590617178038, "alt_km": 430.4684261055045, "timestamp": "2025-12-21T07:34:34.197922+00:00", "meta": {"OBJECT_NAME": "SKYSAT-C4", "OBJECT_ID": "2016-058B", "EPOCH": "2025-12-20T12:26:05.053920", "MEAN_MOTION": 15.42456678, "ECCENTRICITY": 0.0002175, "INCLINATION": 96.936, "RA_OF_ASC_NODE": 19.3283, "ARG_OF_PERICENTER": 127.8827, "MEAN_ANOMALY": 232.2618, "EPHEMERIS_TYPE": 0, "CLASSIFICATION_TYPE": "U", "NORAD_CAT_ID": 41771, "ELEMENT_SET_NO": 999, "REV_AT_EPOCH": 51787, "BSTAR": 0.00023302, "MEAN_MOTION_DOT": 0.00010007, "MEAN_MOTION_DDOT": 0}, "tle": {"line1": "1 41771U 16058B   25354.51811405  .00010007  00000+0  23302-3 0  9994", "line2": "2 41771  96.9360  19.3283 0002175 127.8827 232.2618 15.42456678517871"}}, "geometry": {"type": "Point", "coordinates": [-137.05590617178038, 72.59853214468646]}}, {"type": "Feature", "properties": {"norad_id": 41772, "name": "SKYSAT-C5", "group": "resource", "lat": 53.811774365602645, "lon": -131.5165545723643, "alt_km": 460.3664151509329, "timestamp": "2025-12-21T07:34:34.197931+00:00", "meta": {"OBJECT_NAME": "SKYSAT-C5", "OBJECT_ID": "2016-058C", "EPOCH": "2025-12-20T16:56:26.242656", "MEAN_MOTION": 15.34007907, "ECCENTRICITY": 0.00037931, "INCLINATION": 97.0746, "RA_OF_ASC_NODE": 38.1251, "ARG_OF_PERICENTER": 253.8673, "MEAN_ANOMALY": 106.2153, "EPHEMERIS_TYPE": 0, "CLASSIFICATION_TYPE": "U", "NORAD_CAT_ID": 41772, "ELEMENT_SET_NO": 999, "REV_AT_EPOCH": 51638, "BSTAR": 0.00018200312, "MEAN_MOTION_DOT": 5.914e-05, "MEAN_MOTION_DDOT": 0}, "tle": {"line1": "1 41772U 16058C   25354.70585929  .00005914  00000+0  18200-3 0  9997", "line2": "2 41772  97.0746  38.1251 0003793 253.8673 106.2153 15.34007907516389"}}, "geometry": {"type": "Point", "coordinates": [-131.5165545723643, 53.811774365602645]}}, {"type": "Feature", "properties": {"norad_id": 41773, "name": "SKYSAT-C2", "group": "resource", "lat": -55.90670555223978, "lon": -171.03252976838928, "alt_km": 462.3430044874167, "timestamp": "2025-12-21T07:34:34.197940+00:00", "meta": {"OBJECT_NAME": "SKYSAT-C2", "OBJECT_ID": "2016-058D", "EPOCH": "2025-12-20T19:36:58.060224", "MEAN_MOTION": 15.37438563, "ECCENTRICITY": 0.00033289, "INCLINATION": 97.0349, "RA_OF_ASC_NODE": 19.0021, "ARG_OF_PERICENTER": 11.7466, "MEAN_ANOMALY": 348.3857, "EPHEMERIS_TYPE": 0, "CLASSIFICATION_TYPE": "U", "NORAD_CAT_ID": 41773, "ELEMENT_SET_NO": 999, "REV_AT_EPOCH": 51760, "BSTAR": 0.00021467498, "MEAN_MOTION_DOT": 7.805e-05, "MEAN_MOTION_DDOT": 0}, "tle": {"line1": "1 41773U 16058D   25354.81733866  .00007805  00000+0  21467-3 0  9995", "line2": "2 41773  97.0349  19.0021 0003328  11.7466 348.3857 15.37438563517602"}}, "geometry": {"type": "Point", "coordinates": [-171.03252976838928, -55.90670555223978]}}, {"type": "Feature", "properties": {"norad_id": 41774, "name": "SKYSAT-C3", "group": "resource", "lat": -72.26845830645024, "lon": 51.016967227834705, "alt_km": 440.9803507720371, "timestamp": "2025-12-21T07:34:34.197949+00:00", "meta": {"OBJECT_NAME": "SKYSAT-C3", "OBJECT_ID": "2016-058E", "EPOCH": "2025-12-20T08:34:23.687904", "MEAN_MOTION": 15.44652608, "ECCENTRICITY": 0.0001932, "INCLINATION": 96.9286, "RA_OF_ASC_NODE": 27.7493, "ARG_OF_PERICENTER": 107.595, "MEAN_ANOMALY": 252.5511, "EPHEMERIS_TYPE": 0, "CLASSIFICATION_TYPE": "U", "NORAD_CAT_ID": 41774, "ELEMENT_SET_NO": 999, "REV_AT_EPOCH": 51843, "BSTAR": 0.0002841356, "MEAN_MOTION_DOT": 0.00013163, "MEAN_MOTION_DDOT": 0}, "tle": {"line1": "1 41774U 16058E   25354.35721861  .00013163  00000+0  28414-3 0  9990", "line2": "2 41774  96.9286  27.7493 0001932 107.5950 252.5511 15.44652608518432"}}, "geometry": {"type": "Point", "coordinates": [51.016967227834705, -72.26845830645024]}}]}